[{"OBJECT_NAME":"STARLINK-34693","OBJECT_ID":"2025-150D","EPOCH":"2026-03-09T13:35:23.471232","MEAN_MOTION":14.98331008,"ECCENTRICITY":0.0004041,"INCLINATION":70.0011,"RA_OF_ASC_NODE":134.9527,"ARG_OF_PERICENTER":272.5414,"MEAN_ANOMALY":87.5283,"EPHEMERIS_TYPE":0,"CLASSIFICATION_TYPE":"U","NORAD_CAT_ID":64793,"ELEMENT_SET_NO":999,"REV_AT_EPOCH":3649,"BSTAR":0.00037361,"MEAN_MOTION_DOT":4.368e-5,"MEAN_MOTION_DDOT":0},{"OBJECT_NAME":"FENGYUN 1C DEB","OBJECT_ID":"1999-025BNB","EPOCH":"2026-03-07T15:11:57.347232","MEAN_MOTION":14.45117426,"ECCENTRICITY":0.0237619,"INCLINATION":98.1742,"RA_OF_ASC_NODE":306.5864,"ARG_OF_PERICENTER":16.8277,"MEAN_ANOMALY":47.6906,"EPHEMERIS_TYPE":0,"CLASSIFICATION_TYPE":"U","NORAD_CAT_ID":31269,"ELEMENT_SET_NO":999,"REV_AT_EPOCH":97712,"BSTAR":0.0021414,"MEAN_MOTION_DOT":0.00010577,"MEAN_MOTION_DDOT":0}]
